NORAD_CAT_ID,OBJECT_NAME,OBJECT_TYPE,EPOCH,MEAN_MOTION,ECCENTRICITY,INCLINATION,RA_OF_ASC_NODE,ARG_OF_PERICENTER,MEAN_ANOMALY,BSTAR,MEAN_MOTION_DOT,MEAN_MOTION_DDOT,TLE_LINE0,TLE_LINE1,TLE_LINE2,SEMIMAJOR_AXIS,PERIOD,APOGEE,PERIGEE,DECAYED
53547.0,STARLINK-4474,PAYLOAD,2024-06-20 19:06:23,15.0884338,0.0001551,53.2199,358.3565,114.0944,246.021,-3.6642e-05,-8.71e-06,0.0,0 STARLINK-4474,1 53547U 22101W   24172.79610877 -.00000871  00000-0 -36642-4 0  9994,2 53547  53.2199 358.3565 0001551 114.0944 246.0210 15.08843380102339,6917.87,95.437,540.808,538.662,0.0
53547.0,STARLINK-4474,PAYLOAD,2024-06-21 12:35:38,15.08833531,0.0001355,53.22,355.0879,90.7469,269.3678,5.4195e-05,5.75e-06,0.0,0 STARLINK-4474,1 53547U 22101W   24173.52475258  .00000575  00000-0  54195-4 0  9990,2 53547  53.2200 355.0879 0001355  90.7469 269.3678 15.08833531101778,6917.9,95.438,540.703,538.828,0.0
53547.0,STARLINK-4474,PAYLOAD,2024-06-21 18:57:11,15.08835321,0.0001269,53.2186,353.8961,89.4285,270.6853,3.4415e-07,-2.82e-06,0.0,0 STARLINK-4474,1 53547U 22101W   24173.78971413 -.00000282  00000-0  34415-6 0  9993,2 53547  53.2186 353.8961 0001269  89.4285 270.6853 15.08835321102482,6917.895,95.438,540.638,538.882,0.0
53547.0,STARLINK-4474,PAYLOAD,2024-06-22 10:51:02,15.08835208,0.0001258,53.2185,350.9225,88.6643,271.4493,3.9632e-06,-2.25e-06,0.0,0 STARLINK-4474,1 53547U 22101W   24174.45211578 -.00000225  00000-0  39632-5 0  9999,2 53547  53.2185 350.9225 0001258  88.6643 271.4493 15.08835208102583,6917.895,95.438,540.63,538.89,0.0
53547.0,STARLINK-4474,PAYLOAD,2024-06-22 18:47:58,15.08836834,0.000126,53.2184,349.4358,88.561,271.5526,1.8555e-05,7e-08,0.0,0 STARLINK-4474,1 53547U 22101W   24174.78331514  .00000007  00000-0  18555-4 0  9995,2 53547  53.2184 349.4358 0001260  88.5610 271.5526 15.08836834101963,6917.89,95.438,540.627,538.883,0.0
53547.0,STARLINK-4474,PAYLOAD,2024-06-23 10:41:49,15.08834075,0.0001324,53.2182,346.4621,101.4229,258.6912,4.8116e-05,4.78e-06,0.0,0 STARLINK-4474,1 53547U 22101W   24175.44571675  .00000478  00000-0  48116-4 0  9991,2 53547  53.2182 346.4621 0001324 101.4229 258.6912 15.08834075102739,6917.898,95.438,540.679,538.848,0.0
53547.0,STARLINK-4474,PAYLOAD,2024-06-23 17:03:22,15.08834117,0.0001326,53.2184,345.2726,102.2589,257.8552,4.3332e-05,4.02e-06,0.0,0 STARLINK-4474,1 53547U 22101W   24175.71067775  .00000402  00000-0  43332-4 0  9994,2 53547  53.2184 345.2726 0001326 102.2589 257.8552 15.08834117102776,6917.898,95.438,540.681,538.846,0.0
53547.0,STARLINK-4474,PAYLOAD,2024-06-24 18:29:32,15.08837224,0.0001261,53.2181,340.5149,95.4019,264.7117,3.1845e-05,2.19e-06,0.0,0 STARLINK-4474,1 53547U 22101W   24176.77051920  .00000219  00000-0  31845-4 0  9998,2 53547  53.2181 340.5149 0001261  95.4019 264.7117 15.08837224102269,6917.889,95.438,540.626,538.882,0.0
53547.0,STARLINK-4474,PAYLOAD,2024-06-25 18:20:17,15.0887156,0.0001395,53.2185,336.0538,94.9545,265.1607,0.00031449,4.725e-05,0.0,0 STARLINK-4474,1 53547U 22101W   24177.76409098  .00004725  00000-0  31449-3 0  9996,2 53547  53.2185 336.0538 0001395  94.9545 265.1607 15.08871560102418,6917.784,95.436,540.614,538.684,0.0
53547.0,STARLINK-4474,PAYLOAD,2024-06-26 03:52:35,15.08870856,0.0001636,53.2185,334.2677,70.3171,289.7998,0.00025919,3.843e-05,0.0,0 STARLINK-4474,1 53547U 22101W   24178.16152761  .00003843  00000-0  25919-3 0  9998,2 53547  53.2185 334.2677 0001636  70.3171 289.7998 15.08870856102471,6917.786,95.436,540.783,538.519,0.0
53547.0,STARLINK-4474,PAYLOAD,2024-06-27 13:15:44,15.08850178,0.0001329,53.218,328.0246,110.406,249.7075,-0.00031362,-5.277e-05,0.0,0 STARLINK-4474,1 53547U 22101W   24179.55260088 -.00005277  00000-0 -31362-3 0  9998,2 53547  53.2180 328.0246 0001329 110.4060 249.7075 15.08850178102681,6917.849,95.437,540.634,538.795,0.0
53547.0,STARLINK-4474,PAYLOAD,2024-06-27 16:26:30,15.08853059,0.0001453,53.2187,327.4308,101.3558,258.7597,-0.00028281,-4.788e-05,0.0,0 STARLINK-4474,1 53547U 22101W   24179.68507781 -.00004788  00000-0 -28281-3 0  9998,2 53547  53.2187 327.4308 0001453 101.3558 258.7597 15.08853059103376,6917.84,95.437,540.711,538.7,0.0
53547.0,STARLINK-4474,PAYLOAD,2024-06-28 14:41:53,15.08837375,0.0001478,53.2187,323.2688,101.4173,258.6985,0.00018199,2.609e-05,0.0,0 STARLINK-4474,1 53547U 22101W   24180.61242941  .00002609  00000-0  18199-3 0  9992,2 53547  53.2187 323.2688 0001478 101.4173 258.6985 15.08837375103511,6917.888,95.438,540.776,538.731,0.0
53547.0,STARLINK-4474,PAYLOAD,2024-06-28 16:17:16,15.08846121,0.0001434,53.2185,322.9702,105.6471,254.468,0.00022164,3.242e-05,0.0,0 STARLINK-4474,1 53547U 22101W   24180.67866351  .00003242  00000-0  22164-3 0  9996,2 53547  53.2185 322.9702 0001434 105.6471 254.4680 15.08846121102852,6917.862,95.437,540.719,538.735,0.0
53547.0,STARLINK-4474,PAYLOAD,2024-06-29 12:57:20,15.08807807,0.0001207,53.2185,319.1058,100.2219,259.8909,-0.00011826,-2.168e-05,0.0,0 STARLINK-4474,1 53547U 22101W   24181.53982059 -.00002168  00000-0 -11826-3 0  9997,2 53547  53.2185 319.1058 0001207 100.2219 259.8909 15.08807807102988,6917.979,95.44,540.679,539.009,0.0
53547.0,STARLINK-4474,PAYLOAD,2024-06-29 14:32:43,15.08809144,0.0001367,53.2185,318.8084,108.8669,251.2472,-0.00010527,-1.961e-05,0.0,0 STARLINK-4474,1 53547U 22101W   24181.60606031 -.00001961  00000-0 -10527-3 0  9995,2 53547  53.2185 318.8084 0001367 108.8669 251.2472 15.08809144103666,6917.975,95.44,540.785,538.894,0.0
53547.0,STARLINK-4474,PAYLOAD,2024-06-29 16:08:06,15.0881074,0.0001236,53.2184,318.5114,101.5441,258.569,-8.3979e-05,-1.623e-05,0.0,0 STARLINK-4474,1 53547U 22101W   24181.67230028 -.00001623  00000-0 -83979-4 0  9998,2 53547  53.2184 318.5114 0001236 101.5441 258.5690 15.08810740103676,6917.97,95.439,540.69,538.98,0.0
53547.0,STARLINK-4474,PAYLOAD,2024-06-30 09:37:20,15.08840226,0.0001073,53.2173,315.2398,107.8897,252.2212,-8.3185e-05,-1.611e-05,0.0,0 STARLINK-4474,1 53547U 22101W   24182.40092868 -.00001611  00000-0 -83185-4 0  9994,2 53547  53.2173 315.2398 0001073 107.8897 252.2212 15.08840226103117,6917.88,95.438,540.487,539.002,0.0
53547.0,STARLINK-4474,PAYLOAD,2024-06-30 14:23:29,15.08840691,0.0001525,53.2183,314.3514,121.2071,238.9071,-7.8826e-05,-1.542e-05,0.0,0 STARLINK-4474,1 53547U 22101W   24182.59964919 -.00001542  00000-0 -78826-4 0  9998,2 53547  53.2183 314.3514 0001525 121.2071 238.9071 15.08840691103811,6917.878,95.438,540.798,538.688,0.0
53547.0,STARLINK-4474,PAYLOAD,2024-06-30 15:58:51,15.08849047,0.0001306,53.2169,314.0513,123.0287,237.083,0.0001226,1.664e-05,0.0,0 STARLINK-4474,1 53547U 22101W   24182.66587896  .00001664  00000-0  12260-3 0  9993,2 53547  53.2169 314.0513 0001306 123.0287 237.0830 15.08849047103151,6917.853,95.437,540.621,538.814,0.0
53547.0,STARLINK-4474,PAYLOAD,2024-07-01 01:31:09,15.08867265,0.0001066,53.2166,312.2642,70.7926,289.3181,0.00038612,5.867e-05,0.0,0 STARLINK-4474,1 53547U 22101W   24183.06330796  .00005867  00000-0  38612-3 0  9991,2 53547  53.2166 312.2642 0001066  70.7926 289.3181 15.08867265103210,6917.797,95.436,540.399,538.925,0.0
53547.0,STARLINK-4474,PAYLOAD,2024-07-01 12:38:53,15.08828253,0.0001207,53.2177,310.1874,90.5133,269.5997,0.00010346,1.359e-05,0.0,0 STARLINK-4474,1 53547U 22101W   24183.52701139  .00001359  00000-0  10346-3 0  9991,2 53547  53.2177 310.1874 0001207  90.5133 269.5997 15.08828253103289,6917.916,95.438,540.616,538.946,0.0
53547.0,STARLINK-4474,PAYLOAD,2024-07-01 14:14:16,15.08829701,0.0001284,53.2174,309.8898,91.0363,269.0776,0.00011891,1.605e-05,0.0,0 STARLINK-4474,1 53547U 22101W   24183.59325141  .00001605  00000-0  11891-3 0  9993,2 53547  53.2174 309.8898 0001284  91.0363 269.0776 15.08829701103967,6917.912,95.438,540.665,538.889,0.0
53547.0,STARLINK-4474,PAYLOAD,2024-07-01 17:25:02,15.08842572,0.0001254,53.2176,309.2943,80.6969,279.4165,0.00018405,2.643e-05,0.0,0 STARLINK-4474,1 53547U 22101W   24183.72572681  .00002643  00000-0  18405-3 0  9992,2 53547  53.2176 309.2943 0001254  80.6969 279.4165 15.08842572103314,6917.873,95.437,540.605,538.87,0.0
53547.0,STARLINK-4474,PAYLOAD,2024-07-02 12:29:40,15.08827331,6.55e-05,53.215,305.7233,77.9205,282.186,-1.5518e-05,-5.34e-06,0.0,0 STARLINK-4474,1 53547U 22101W   24184.52060812 -.00000534  00000-0 -15518-4 0  9991,2 53547  53.2150 305.7233 0000655  77.9205 282.1860 15.08827331103437,6917.919,95.438,540.237,539.331,0.0
53547.0,STARLINK-4474,PAYLOAD,2024-07-02 14:05:03,15.08831802,9.98e-05,53.2154,305.4261,67.0775,293.0323,0.00013721,1.896e-05,0.0,0 STARLINK-4474,1 53547U 22101W   24184.58684911  .00001896  00000-0  13721-3 0  9992,2 53547  53.2154 305.4261 0000998  67.0775 293.0323 15.08831802104110,6917.905,95.438,540.461,539.08,0.0
53547.0,STARLINK-4474,PAYLOAD,2024-07-02 17:15:49,15.08850273,9.73e-05,53.2161,304.8325,75.1121,284.9979,0.00087369,0.00013648,0.0,0 STARLINK-4474,1 53547U 22101W   24184.71932704  .00013648  00000-0  87369-3 0  9990,2 53547  53.2161 304.8325 0000973  75.1121 284.9979 15.08850273103466,6917.849,95.437,540.387,539.041,0.0
53547.0,STARLINK-4474,PAYLOAD,2024-07-03 13:55:50,15.088573,0.0001143,53.2141,300.9668,79.2203,280.8918,0.0013229,0.00020839,0.0,0 STARLINK-4474,1 53547U 22101W   24185.58044622  .00020839  00000-0  13229-2 0  9992,2 53547  53.2141 300.9668 0001143  79.2203 280.8918 15.08857300103597,6917.828,95.436,540.483,538.902,0.0
53547.0,STARLINK-4474,PAYLOAD,2024-07-03 15:31:13,15.08862132,0.0001084,53.2155,300.67,76.7029,283.4084,0.0017872,0.00028287,0.0,0 STARLINK-4474,1 53547U 22101W   24185.64668568  .00028287  00000-0  17872-2 0  9993,2 53547  53.2155 300.6700 0001084  76.7029 283.4084 15.08862132104276,6917.813,95.436,540.428,538.928,0.0
53547.0,STARLINK-4474,PAYLOAD,2024-07-04 12:11:14,15.08841198,8.97e-05,53.2158,296.8043,89.7034,270.4061,0.001025,0.00016063,0.0,0 STARLINK-4474,1 53547U 22101W   24186.50780313  .00016063  00000-0  10250-2 0  9994,2 53547  53.2158 296.8043 0000897  89.7034 270.4061 15.08841198103736,6917.877,95.437,540.362,539.121,0.0
